{"type": "FeatureCollection", "features": [ {"type": "Feature", "properties": {"norad_id": 60989, "name": "SENTINEL-2C", "group": "resource", "lat": 24.186917132206872, "lon": 63.269665097648264, "alt_km": 788.0397753353109, "timestamp": "2025-12-20T18:51:31.375954+00:00", "meta": {"OBJECT_NAME": "SENTINEL-2C", "OBJECT_ID": "2024-157A", "EPOCH": "2025-12-20T03:38:23.300448", "MEAN_MOTION": 14.30820273, "ECCENTRICITY": 0.00012037, "INCLINATION": 98.5676, "RA_OF_ASC_NODE": 66.5273, "ARG_OF_PERICENTER": 95.83, "MEAN_ANOMALY": 264.302, "EPHEMERIS_TYPE": 0, "CLASSIFICATION_TYPE": "U", "NORAD_CAT_ID": 60989, "ELEMENT_SET_NO": 999, "REV_AT_EPOCH": 6738, "BSTAR": 5.6238603e-05, "MEAN_MOTION_DOT": 1.04e-06, "MEAN_MOTION_DDOT": 0}, "tle": {"line1": "1 60989U 24157A   25354.15165857  .00000104  00000+0  56239-4 0  9991", "line2": "2 60989  98.5676  66.5273 0001203  95.8300 264.3020 14.30820273 67386"}}, "geometry": {"type": "Point", "coordinates": [63.269665097648264, 24.186917132206872]}}, {"type": "Feature", "properties": {"norad_id": 61735, "name": "IONOSFERA-M 1", "group": "resource", "lat": 55.5985021121684, "lon": -148.41057512293995, "alt_km": 810.5509394158753, "timestamp": "2025-12-20T18:51:31.375964+00:00", "meta": {"OBJECT_NAME": "IONOSFERA-M 1", "OBJECT_ID": "2024-199A", "EPOCH": "2025-12-20T15:13:04.564704", "MEAN_MOTION": 14.2271563, "ECCENTRICITY": 5.84e-05, "INCLINATION": 98.7399, "RA_OF_ASC_NODE": 224.4215, "ARG_OF_PERICENTER": 11.9613, "MEAN_ANOMALY": 348.1579, "EPHEMERIS_TYPE": 0, "CLASSIFICATION_TYPE": "U", "NORAD_CAT_ID": 61735, "ELEMENT_SET_NO": 999, "REV_AT_EPOCH": 10231, "BSTAR": 3.796992e-05, "MEAN_MOTION_DOT": 4.1e-07, "MEAN_MOTION_DDOT": 0}, "tle": {"line1": "1 61735U 24199A   25354.63408061  .00000041  00000+0  37970-4 0  9998", "line2": "2 61735  98.7399 224.4215 0000584  11.9613 348.1579 14.22715630102312"}}, "geometry": {"type": "Point", "coordinates": [-148.41057512293995, 55.5985021121684]}}, {"type": "Feature", "properties": {"norad_id": 61736, "name": "IONOSFERA-M 2", "group": "resource", "lat": -58.34463520759047, "lon": 30.036150212995945, "alt_km": 824.2384483487467, "timestamp": "2025-12-20T18:51:31.375974+00:00", "meta": {"OBJECT_NAME": "IONOSFERA-M 2", "OBJECT_ID": "2024-199B", "EPOCH": "2025-12-20T14:21:40.725792", "MEAN_MOTION": 14.22717806, "ECCENTRICITY": 0.00018095, "INCLINATION": 98.7397, "RA_OF_ASC_NODE": 224.2985, "ARG_OF_PERICENTER": 100.497, "MEAN_ANOMALY": 259.6411, "EPHEMERIS_TYPE": 0, "CLASSIFICATION_TYPE": "U", "NORAD_CAT_ID": 61736, "ELEMENT_SET_NO": 999, "REV_AT_EPOCH": 10543, "BSTAR": 3.9158909e-05, "MEAN_MOTION_DOT": 4.4e-07, "MEAN_MOTION_DDOT": 0}, "tle": {"line1": "1 61736U 24199B   25354.59838803  .00000044  00000+0  39159-4 0  9999", "line2": "2 61736  98.7397 224.2985 0001809 100.4970 259.6411 14.22717806105438"}}, "geometry": {"type": "Point", "coordinates": [30.036150212995945, -58.34463520759047]}}, {"type": "Feature", "properties": {"norad_id": 63772, "name": "BIOMASS", "group": "resource", "lat": -70.68239310801476, "lon": -156.44621461887053, "alt_km": 676.9144799423539, "timestamp": "2025-12-20T18:51:31.375983+00:00", "meta": {"OBJECT_NAME": "BIOMASS", "OBJECT_ID": "2025-090A", "EPOCH": "2025-12-20T11:00:22.690080", "MEAN_MOTION": 14.67537273, "ECCENTRICITY": 0.00011035, "INCLINATION": 98.07, "RA_OF_ASC_NODE": 179.356, "ARG_OF_PERICENTER": 81.418, "MEAN_ANOMALY": 278.715, "EPHEMERIS_TYPE": 0, "CLASSIFICATION_TYPE": "U", "NORAD_CAT_ID": 63772, "ELEMENT_SET_NO": 999, "REV_AT_EPOCH": 3447, "BSTAR": 0.0001671094, "MEAN_MOTION_DOT": 9e-06, "MEAN_MOTION_DDOT": 0}, "tle": {"line1": "1 63772U 25090A   25354.45859595  .00000900  00000+0  16711-3 0  9997", "line2": "2 63772  98.0700 179.3560 0001103  81.4180 278.7150 14.67537273 34472"}}, "geometry": {"type": "Point", "coordinates": [-156.44621461887053, -70.68239310801476]}}, {"type": "Feature", "properties": {"norad_id": 64694, "name": "GOSAT-GW (IBUKI GW)", "group": "resource", "lat": 41.497022732417555, "lon": 117.33925820810063, "alt_km": 664.9233319885707, "timestamp": "2025-12-20T18:51:31.375993+00:00", "meta": {"OBJECT_NAME": "GOSAT-GW (IBUKI GW)", "OBJECT_ID": "2025-141A", "EPOCH": "2025-12-20T14:57:35.439840", "MEAN_MOTION": 14.67565628, "ECCENTRICITY": 0.0001465, "INCLINATION": 98.0435, "RA_OF_ASC_NODE": 289.9935, "ARG_OF_PERICENTER": 83.9607, "MEAN_ANOMALY": 276.1765, "EPHEMERIS_TYPE": 0, "CLASSIFICATION_TYPE": "U", "NORAD_CAT_ID": 64694, "ELEMENT_SET_NO": 999, "REV_AT_EPOCH": 2565, "BSTAR": 9.7472999e-05, "MEAN_MOTION_DOT": 5.05e-06, "MEAN_MOTION_DDOT": 0}, "tle": {"line1": "1 64694U 25141A   25354.62332685  .00000505  00000+0  97473-4 0  9999", "line2": "2 64694  98.0435 289.9935 0001465  83.9607 276.1765 14.67565628 25656"}}, "geometry": {"type": "Point", "coordinates": [117.33925820810063, 41.497022732417555]}}, {"type": "Feature", "properties": {"norad_id": 64876, "name": "IONOSFERA-M 3", "group": "resource", "lat": -65.23424278835596, "lon": 117.32392835859478, "alt_km": 829.0417155264549, "timestamp": "2025-12-20T18:51:31.376004+00:00", "meta": {"OBJECT_NAME": "IONOSFERA-M 3", "OBJECT_ID": "2025-155A", "EPOCH": "2025-12-20T14:19:23.443104", "MEAN_MOTION": 14.21442763, "ECCENTRICITY": 0.00020159, "INCLINATION": 98.5793, "RA_OF_ASC_NODE": 316.2408, "ARG_OF_PERICENTER": 47.454, "MEAN_ANOMALY": 312.6808, "EPHEMERIS_TYPE": 0, "CLASSIFICATION_TYPE": "U", "NORAD_CAT_ID": 64876, "ELEMENT_SET_NO": 999, "REV_AT_EPOCH": 2103, "BSTAR": 3.4804939e-05, "MEAN_MOTION_DOT": 3.3e-07, "MEAN_MOTION_DDOT": 0}, "tle": {"line1": "1 64876U 25155A   25354.59679911  .00000033  00000+0  34805-4 0  9994", "line2": "2 64876  98.5793 316.2408 0002015  47.4540 312.6808 14.21442763 21038"}}, "geometry": {"type": "Point", "coordinates": [117.32392835859478, -65.23424278835596]}}, {"type": "Feature", "properties": {"norad_id": 64877, "name": "IONOSFERA-M 4", "group": "resource", "lat": 65.80199051022949, "lon": -63.28548082863963, "alt_km": 813.0344415829986, "timestamp": "2025-12-20T18:51:31.376014+00:00", "meta": {"OBJECT_NAME": "IONOSFERA-M 4", "OBJECT_ID": "2025-155B", "EPOCH": "2025-12-20T15:09:52.629696", "MEAN_MOTION": 14.21443913, "ECCENTRICITY": 0.00014139, "INCLINATION": 98.5792, "RA_OF_ASC_NODE": 316.1943, "ARG_OF_PERICENTER": 55.6941, "MEAN_ANOMALY": 304.437, "EPHEMERIS_TYPE": 0, "CLASSIFICATION_TYPE": "U", "NORAD_CAT_ID": 64877, "ELEMENT_SET_NO": 999, "REV_AT_EPOCH": 2103, "BSTAR": 3.5588215e-05, "MEAN_MOTION_DOT": 3.5e-07, "MEAN_MOTION_DDOT": 0}, "tle": {"line1": "1 64877U 25155B   25354.63185914  .00000035  00000+0  35588-4 0  9996", "line2": "2 64877  98.5792 316.1943 0001413  55.6941 304.4370 14.21443913 21039"}}, "geometry": {"type": "Point", "coordinates": [-63.28548082863963, 65.80199051022949]}}, {"type": "Feature", "properties": {"norad_id": 64899, "name": "MICROCARB", "group": "resource", "lat": -64.77047977946016, "lon": -127.36752956073414, "alt_km": 668.8224266850611, "timestamp": "2025-12-20T18:51:31.376025+00:00", "meta": {"OBJECT_NAME": "MICROCARB", "OBJECT_ID": "2025-156A", "EPOCH": "2025-12-20T04:41:43.963008", "MEAN_MOTION": 14.72068313, "ECCENTRICITY": 0.00174928, "INCLINATION": 98.0018, "RA_OF_ASC_NODE": 69.4214, "ARG_OF_PERICENTER": 122.322, "MEAN_ANOMALY": 237.9684, "EPHEMERIS_TYPE": 0, "CLASSIFICATION_TYPE": "U", "NORAD_CAT_ID": 64899, "ELEMENT_SET_NO": 999, "REV_AT_EPOCH": 2163, "BSTAR": 8.8540161e-05, "MEAN_MOTION_DOT": 5.08e-06, "MEAN_MOTION_DDOT": 0}, "tle": {"line1": "1 64899U 25156A   25354.19564772  .00000508  00000+0  88540-4 0  9996", "line2": "2 64899  98.0018  69.4214 0017492 122.3220 237.9684 14.72068313 21631"}}, "geometry": {"type": "Point", "coordinates": [-127.36752956073414, -64.77047977946016]}}, {"type": "Feature", "properties": {"norad_id": 64900, "name": "CO3D 3", "group": "resource", "lat": -58.4933841220688, "lon": -121.2623000165405, "alt_km": 513.246073473204, "timestamp": "2025-12-20T18:51:31.376034+00:00", "meta": {"OBJECT_NAME": "CO3D 3", "OBJECT_ID": "2025-156B", "EPOCH": "2025-12-20T13:04:13.247328", "MEAN_MOTION": 15.20203792, "ECCENTRICITY": 0.00013551, "INCLINATION": 97.4346, "RA_OF_ASC_NODE": 70.8003, "ARG_OF_PERICENTER": 79.7127, "MEAN_ANOMALY": 280.4261, "EPHEMERIS_TYPE": 0, "CLASSIFICATION_TYPE": "U", "NORAD_CAT_ID": 64900, "ELEMENT_SET_NO": 999, "REV_AT_EPOCH": 2239, "BSTAR": 0.000234437, "MEAN_MOTION_DOT": 5.011e-05, "MEAN_MOTION_DDOT": 0}, "tle": {"line1": "1 64900U 25156B   25354.54459777  .00005011  00000+0  23444-3 0  9991", "line2": "2 64900  97.4346  70.8003 0001355  79.7127 280.4261 15.20203792 22399"}}, "geometry": {"type": "Point", "coordinates": [-121.2623000165405, -58.4933841220688]}}, {"type": "Feature", "properties": {"norad_id": 64901, "name": "CO3D 4", "group": "resource", "lat": -57.88446444563125, "lon": -120.96899197371718, "alt_km": 511.92250958272325, "timestamp": "2025-12-20T18:51:31.376045+00:00", "meta": {"OBJECT_NAME": "CO3D 4", "OBJECT_ID": "2025-156C", "EPOCH": "2025-12-19T14:57:26.055072", "MEAN_MOTION": 15.20230123, "ECCENTRICITY": 0.0001264, "INCLINATION": 97.434, "RA_OF_ASC_NODE": 69.8917, "ARG_OF_PERICENTER": 174.7354, "MEAN_ANOMALY": 185.3894, "EPHEMERIS_TYPE": 0, "CLASSIFICATION_TYPE": "U", "NORAD_CAT_ID": 64901, "ELEMENT_SET_NO": 999, "REV_AT_EPOCH": 2225, "BSTAR": 0.00021367, "MEAN_MOTION_DOT": 4.564e-05, "MEAN_MOTION_DDOT": 0}, "tle": {"line1": "1 64901U 25156C   25353.62321823  .00004564  00000+0  21367-3 0  9994", "line2": "2 64901  97.4340  69.8917 0001264 174.7354 185.3894 15.20230123 22251"}}, "geometry": {"type": "Point", "coordinates": [-120.96899197371718, -57.88446444563125]}}]}